[
  {
    "OBJECT_NAME": "STARLINK-32367",
    "OBJECT_ID": "24154S",
    "EPOCH": "2025-11-10T20:14:11.221152",
    "MEAN_MOTION": 15.30179861,
    "ECCENTRICITY": 0.0001736,
    "INCLINATION": 53.1572,
    "RA_OF_ASC_NODE": 115.5448,
    "ARG_OF_PERICENTER": 91.847,
    "MEAN_ANOMALY": 268.273,
    "EPHEMERIS_TYPE": 0,
    "CLASSIFICATION_TYPE": "U",
    "NORAD_CAT_ID": 60919,
    "ELEMENT_SET_NO": 999,
    "REV_AT_EPOCH": 6814,
    "BSTAR": 9.182500000000001e-05,
    "MEAN_MOTION_DOT": 2.359e-05,
    "MEAN_MOTION_DDOT": 0.0,
    "TLE_LINE1": "1 60919U 24154S   25314.84318543  .00002359  00000+0  91825-4 0  9999",
    "TLE_LINE2": "2 60919  53.1572 115.5448 0001736  91.8470 268.2730 15.30179861 68142",
    "COMMENT": "Grouped by shell and plane from TLE"
  },
  {
    "OBJECT_NAME": "STARLINK-32345",
    "OBJECT_ID": "24154T",
    "EPOCH": "2025-11-11T03:52:28.152480",
    "MEAN_MOTION": 15.30189779,
    "ECCENTRICITY": 0.0001595,
    "INCLINATION": 53.16,
    "RA_OF_ASC_NODE": 114.6874,
    "ARG_OF_PERICENTER": 88.6436,
    "MEAN_ANOMALY": 271.4748,
    "EPHEMERIS_TYPE": 0,
    "CLASSIFICATION_TYPE": "U",
    "NORAD_CAT_ID": 60920,
    "ELEMENT_SET_NO": 999,
    "REV_AT_EPOCH": 6819,
    "BSTAR": 2.0764e-05,
    "MEAN_MOTION_DOT": 2.55e-06,
    "MEAN_MOTION_DDOT": 0.0,
    "TLE_LINE1": "1 60920U 24154T   25315.16143695  .00000255  00000+0  20764-4 0  9998",
    "TLE_LINE2": "2 60920  53.1600 114.6874 0001595  88.6436 271.4748 15.30189779 68197",
    "COMMENT": "Grouped by shell and plane from TLE"
  },
  {
    "OBJECT_NAME": "STARLINK-32356",
    "OBJECT_ID": "24154U",
    "EPOCH": "2025-11-10T20:44:35.296224",
    "MEAN_MOTION": 15.30196281,
    "ECCENTRICITY": 0.0001119,
    "INCLINATION": 53.1588,
    "RA_OF_ASC_NODE": 115.6725,
    "ARG_OF_PERICENTER": 71.937,
    "MEAN_ANOMALY": 288.1752,
    "EPHEMERIS_TYPE": 0,
    "CLASSIFICATION_TYPE": "U",
    "NORAD_CAT_ID": 60921,
    "ELEMENT_SET_NO": 999,
    "REV_AT_EPOCH": 6815,
    "BSTAR": 3.0306e-05,
    "MEAN_MOTION_DOT": 5.38e-06,
    "MEAN_MOTION_DDOT": 0.0,
    "TLE_LINE1": "1 60921U 24154U   25314.86429741  .00000538  00000+0  30306-4 0  9991",
    "TLE_LINE2": "2 60921  53.1588 115.6725 0001119  71.9370 288.1752 15.30196281 68155",
    "COMMENT": "Grouped by shell and plane from TLE"
  },
  {
    "OBJECT_NAME": "STARLINK-32274",
    "OBJECT_ID": "24154V",
    "EPOCH": "2025-11-11T03:25:06.474720",
    "MEAN_MOTION": 15.30197923,
    "ECCENTRICITY": 0.0001091,
    "INCLINATION": 53.1617,
    "RA_OF_ASC_NODE": 114.5688,
    "ARG_OF_PERICENTER": 96.1388,
    "MEAN_ANOMALY": 263.9737,
    "EPHEMERIS_TYPE": 0,
    "CLASSIFICATION_TYPE": "U",
    "NORAD_CAT_ID": 60922,
    "ELEMENT_SET_NO": 999,
    "REV_AT_EPOCH": 6819,
    "BSTAR": 3.4301e-05,
    "MEAN_MOTION_DOT": 6.57e-06,
    "MEAN_MOTION_DDOT": 0.0,
    "TLE_LINE1": "1 60922U 24154V   25315.14243605  .00000657  00000+0  34301-4 0  9998",
    "TLE_LINE2": "2 60922  53.1617 114.5688 0001091  96.1388 263.9737 15.30197923 68194",
    "COMMENT": "Grouped by shell and plane from TLE"
  },
  {
    "OBJECT_NAME": "STARLINK-32373",
    "OBJECT_ID": "24154W",
    "EPOCH": "2025-11-10T21:22:34.396896",
    "MEAN_MOTION": 15.30195414,
    "ECCENTRICITY": 0.0001119,
    "INCLINATION": 53.161,
    "RA_OF_ASC_NODE": 115.8432,
    "ARG_OF_PERICENTER": 92.8451,
    "MEAN_ANOMALY": 267.2678,
    "EPHEMERIS_TYPE": 0,
    "CLASSIFICATION_TYPE": "U",
    "NORAD_CAT_ID": 60923,
    "ELEMENT_SET_NO": 999,
    "REV_AT_EPOCH": 6815,
    "BSTAR": 1.5973e-05,
    "MEAN_MOTION_DOT": 1.14e-06,
    "MEAN_MOTION_DDOT": 0.0,
    "TLE_LINE1": "1 60923U 24154W   25314.89067589  .00000114  00000+0  15973-4 0  9997",
    "TLE_LINE2": "2 60923  53.1610 115.8432 0001119  92.8451 267.2678 15.30195414 68154",
    "COMMENT": "Grouped by shell and plane from TLE"
  },
  {
    "OBJECT_NAME": "STARLINK-32355",
    "OBJECT_ID": "24191P",
    "EPOCH": "2025-11-10T11:55:30.422496",
    "MEAN_MOTION": 15.27580665,
    "ECCENTRICITY": 0.0001635,
    "INCLINATION": 43.0051,
    "RA_OF_ASC_NODE": 111.4324,
    "ARG_OF_PERICENTER": 271.8068,
    "MEAN_ANOMALY": 88.2596,
    "EPHEMERIS_TYPE": 0,
    "CLASSIFICATION_TYPE": "U",
    "NORAD_CAT_ID": 61634,
    "ELEMENT_SET_NO": 999,
    "REV_AT_EPOCH": 5926,
    "BSTAR": 2.7451e-05,
    "MEAN_MOTION_DOT": 4.93e-06,
    "MEAN_MOTION_DDOT": 0.0,
    "TLE_LINE1": "1 61634U 24191P   25314.49687989  .00000493  00000+0  27451-4 0  9990",
    "TLE_LINE2": "2 61634  43.0051 111.4324 0001635 271.8068  88.2596 15.27580665 59263",
    "COMMENT": "Grouped by shell and plane from TLE"
  },
  {
    "OBJECT_NAME": "STARLINK-32405",
    "OBJECT_ID": "24191R",
    "EPOCH": "2025-11-10T12:01:03.314784",
    "MEAN_MOTION": 15.27583123,
    "ECCENTRICITY": 0.0002116,
    "INCLINATION": 43.0039,
    "RA_OF_ASC_NODE": 111.4589,
    "ARG_OF_PERICENTER": 287.93,
    "MEAN_ANOMALY": 72.1321,
    "EPHEMERIS_TYPE": 0,
    "CLASSIFICATION_TYPE": "U",
    "NORAD_CAT_ID": 61636,
    "ELEMENT_SET_NO": 999,
    "REV_AT_EPOCH": 5926,
    "BSTAR": 4.4778000000000004e-05,
    "MEAN_MOTION_DOT": 9.7e-06,
    "MEAN_MOTION_DDOT": 0.0,
    "TLE_LINE1": "1 61636U 24191R   25314.50073281  .00000970  00000+0  44778-4 0  9999",
    "TLE_LINE2": "2 61636  43.0039 111.4589 0002116 287.9300  72.1321 15.27583123 59266",
    "COMMENT": "Grouped by shell and plane from TLE"
  },
  {
    "OBJECT_NAME": "STARLINK-32458",
    "OBJECT_ID": "24210D",
    "EPOCH": "2025-11-10T19:17:16.273248",
    "MEAN_MOTION": 15.27598273,
    "ECCENTRICITY": 0.000184,
    "INCLINATION": 43.0025,
    "RA_OF_ASC_NODE": 116.8865,
    "ARG_OF_PERICENTER": 273.181,
    "MEAN_ANOMALY": 86.8831,
    "EPHEMERIS_TYPE": 0,
    "CLASSIFICATION_TYPE": "U",
    "NORAD_CAT_ID": 61962,
    "ELEMENT_SET_NO": 999,
    "REV_AT_EPOCH": 5689,
    "BSTAR": 0.0011330000000000001,
    "MEAN_MOTION_DOT": 0.00031064,
    "MEAN_MOTION_DDOT": 0.0,
    "TLE_LINE1": "1 61962U 24210D   25314.80366057  .00031064  00000+0  11330-2 0  9996",
    "TLE_LINE2": "2 61962  43.0025 116.8865 0001840 273.1810  86.8831 15.27598273 56891",
    "COMMENT": "Grouped by shell and plane from TLE"
  },
  {
    "OBJECT_NAME": "STARLINK-32513",
    "OBJECT_ID": "24210F",
    "EPOCH": "2025-11-10T20:34:47.132544",
    "MEAN_MOTION": 15.27630529,
    "ECCENTRICITY": 0.0002046,
    "INCLINATION": 43.0024,
    "RA_OF_ASC_NODE": 116.4283,
    "ARG_OF_PERICENTER": 280.8815,
    "MEAN_ANOMALY": 79.1806,
    "EPHEMERIS_TYPE": 0,
    "CLASSIFICATION_TYPE": "U",
    "NORAD_CAT_ID": 61964,
    "ELEMENT_SET_NO": 999,
    "REV_AT_EPOCH": 5690,
    "BSTAR": 0.0013646,
    "MEAN_MOTION_DOT": 0.00037538,
    "MEAN_MOTION_DDOT": 0.0,
    "TLE_LINE1": "1 61964U 24210F   25314.85748996  .00037538  00000+0  13646-2 0  9993",
    "TLE_LINE2": "2 61964  43.0024 116.4283 0002046 280.8815  79.1806 15.27630529 56901",
    "COMMENT": "Grouped by shell and plane from TLE"
  },
  {
    "OBJECT_NAME": "STARLINK-32498",
    "OBJECT_ID": "24210H",
    "EPOCH": "2025-11-11T04:05:11.245920",
    "MEAN_MOTION": 15.27621943,
    "ECCENTRICITY": 0.000347,
    "INCLINATION": 43.008,
    "RA_OF_ASC_NODE": 114.4769,
    "ARG_OF_PERICENTER": 273.8764,
    "MEAN_ANOMALY": 86.1691,
    "EPHEMERIS_TYPE": 0,
    "CLASSIFICATION_TYPE": "U",
    "NORAD_CAT_ID": 61966,
    "ELEMENT_SET_NO": 999,
    "REV_AT_EPOCH": 5695,
    "BSTAR": 0.0011872,
    "MEAN_MOTION_DOT": 0.00032596,
    "MEAN_MOTION_DDOT": 0.0,
    "TLE_LINE1": "1 61966U 24210H   25315.17026905  .00032596  00000+0  11872-2 0  9998",
    "TLE_LINE2": "2 61966  43.0080 114.4769 0003470 273.8764  86.1691 15.27621943 56954",
    "COMMENT": "Grouped by shell and plane from TLE"
  },
  {
    "OBJECT_NAME": "STARLINK-32454",
    "OBJECT_ID": "24224D",
    "EPOCH": "2025-11-10T11:52:22.359072",
    "MEAN_MOTION": 15.27604352,
    "ECCENTRICITY": 0.000421,
    "INCLINATION": 43.0021,
    "RA_OF_ASC_NODE": 118.7817,
    "ARG_OF_PERICENTER": 287.3406,
    "MEAN_ANOMALY": 72.6985,
    "EPHEMERIS_TYPE": 0,
    "CLASSIFICATION_TYPE": "U",
    "NORAD_CAT_ID": 62142,
    "ELEMENT_SET_NO": 999,
    "REV_AT_EPOCH": 5416,
    "BSTAR": 0.0014823,
    "MEAN_MOTION_DOT": 0.00040791,
    "MEAN_MOTION_DDOT": 0.0,
    "TLE_LINE1": "1 62142U 24224D   25314.49470323  .00040791  00000+0  14823-2 0  9996",
    "TLE_LINE2": "2 62142  43.0021 118.7817 0004210 287.3406  72.6985 15.27604352 54165",
    "COMMENT": "Grouped by shell and plane from TLE"
  },
  {
    "OBJECT_NAME": "STARLINK-32485",
    "OBJECT_ID": "24224E",
    "EPOCH": "2025-11-10T18:05:46.453632",
    "MEAN_MOTION": 15.27611787,
    "ECCENTRICITY": 0.0001184,
    "INCLINATION": 42.9971,
    "RA_OF_ASC_NODE": 112.9636,
    "ARG_OF_PERICENTER": 259.0482,
    "MEAN_ANOMALY": 101.0236,
    "EPHEMERIS_TYPE": 0,
    "CLASSIFICATION_TYPE": "U",
    "NORAD_CAT_ID": 62143,
    "ELEMENT_SET_NO": 999,
    "REV_AT_EPOCH": 5382,
    "BSTAR": 0.0018204,
    "MEAN_MOTION_DOT": 0.00050223,
    "MEAN_MOTION_DDOT": 0.0,
    "TLE_LINE1": "1 62143U 24224E   25314.75400988  .00050223  00000+0  18204-2 0  9994",
    "TLE_LINE2": "2 62143  42.9971 112.9636 0001184 259.0482 101.0236 15.27611787 53828",
    "COMMENT": "Grouped by shell and plane from TLE"
  },
  {
    "OBJECT_NAME": "STARLINK-32388",
    "OBJECT_ID": "24224F",
    "EPOCH": "2025-11-11T03:28:24.665952",
    "MEAN_MOTION": 15.27552824,
    "ECCENTRICITY": 0.0001592,
    "INCLINATION": 43.0011,
    "RA_OF_ASC_NODE": 115.0607,
    "ARG_OF_PERICENTER": 269.4914,
    "MEAN_ANOMALY": 90.5755,
    "EPHEMERIS_TYPE": 0,
    "CLASSIFICATION_TYPE": "U",
    "NORAD_CAT_ID": 62144,
    "ELEMENT_SET_NO": 999,
    "REV_AT_EPOCH": 5426,
    "BSTAR": 0.00082742,
    "MEAN_MOTION_DOT": 0.00022558,
    "MEAN_MOTION_DDOT": 0.0,
    "TLE_LINE1": "1 62144U 24224F   25315.14472993  .00022558  00000+0  82742-3 0  9993",
    "TLE_LINE2": "2 62144  43.0011 115.0607 0001592 269.4914  90.5755 15.27552824 54269",
    "COMMENT": "Grouped by shell and plane from TLE"
  }
]